GLOBALSTAR M067 [+]     
1 32263U 07048A   23347.96240163 -.00000044  00000+0  39909-3 0  9996
2 32263  51.9705 208.8099 0000405 106.2631   3.7547 12.40635652741067
GLOBALSTAR M066 [+]     
1 32265U 07048C   23347.99698965 -.00000050  00000+0  29865-3 0  9995
2 32265  51.9663 229.6388 0001783  82.0411  21.6903 12.62278136747268
GLOBALSTAR M068 [-]     
1 32266U 07048D   23347.87721266 -.00000069  00000+0  19300-3 0  9997
2 32266  51.9857 182.7617 0001614  54.3525  51.0285 12.62774712747901
GLOBALSTAR M079 [+]     
1 37188U 10054A   23347.43277922 -.00000095  00000+0  48642-4 0  9994
2 37188  52.0060  19.4151 0000462 134.0329 332.6926 12.62270463606777
GLOBALSTAR M074 [+]     
1 37189U 10054B   23348.00761060 -.00000090  00000+0  78871-4 0  9992
2 37189  52.0038  17.0727 0000277 102.0664 338.4246 12.62263221607524
GLOBALSTAR M076 [+]     
1 37190U 10054C   23347.40567243 -.00000090  00000+0  74447-4 0  9999
2 37190  52.0052  19.0286 0000530 194.4801 267.8812 12.62264258607091
GLOBALSTAR M077 [+]     
1 37191U 10054D   23348.17973656 -.00000101  00000+0  16894-4 0  9999
2 37191  52.0090 333.3700 0000315  44.8658  36.2094 12.62267264608301
